{
  "norad_id": 48799,
  "name": "ONEWEB-0225",
  "history": [
    {
      "epoch": "2026-05-02T10:10:48.497088Z",
      "apogee_km": 1203.2842528686497,
      "perigee_km": 1200.250775082156,
      "latitude_deg": -5.7547322410387494e-05,
      "longitude_deg": -104.72198507682235,
      "height_km": 1204.4177092874054,
      "semi_major_axis_km": 7579.904513975403,
      "eccentricity": 0.0002001,
      "inclination_deg": 87.8959,
      "raan_deg": 268.3225,
      "arg_perigee_deg": 80.8277,
      "mean_anomaly_deg": 279.3079,
      "mean_motion_rev_day": 13.15549397
    },
    {
      "epoch": "2026-05-03T19:02:12.892128Z",
      "apogee_km": 1203.2523343318244,
      "perigee_km": 1200.2855591442722,
      "latitude_deg": 6.273769873990753e-05,
      "longitude_deg": 120.80368979212216,
      "height_km": 1204.4157466606289,
      "semi_major_axis_km": 7579.905946738048,
      "eccentricity": 0.0001957,
      "inclination_deg": 87.8962,
      "raan_deg": 268.0492,
      "arg_perigee_deg": 80.4842,
      "mean_anomaly_deg": 279.651,
      "mean_motion_rev_day": 13.15549024
    },
    {
      "epoch": "2026-05-04T20:35:31.788384Z",
      "apogee_km": 1203.2259759681638,
      "perigee_km": 1200.3092286771898,
      "latitude_deg": 4.353500649331687e-05,
      "longitude_deg": 96.2129342199452,
      "height_km": 1204.4154614642753,
      "semi_major_axis_km": 7579.9046023226765,
      "eccentricity": 0.0001924,
      "inclination_deg": 87.8963,
      "raan_deg": 267.8367,
      "arg_perigee_deg": 80.3591,
      "mean_anomaly_deg": 279.7757,
      "mean_motion_rev_day": 13.15549374
    },
    {
      "epoch": "2026-05-05T18:29:48.009984Z",
      "apogee_km": 1203.2051402686366,
      "perigee_km": 1200.330840296322,
      "latitude_deg": -1.9494739047229993e-05,
      "longitude_deg": 126.56355234130737,
      "height_km": 1204.4114799065917,
      "semi_major_axis_km": 7579.904990282479,
      "eccentricity": 0.0001896,
      "inclination_deg": 87.8961,
      "raan_deg": 267.6545,
      "arg_perigee_deg": 80.0361,
      "mean_anomaly_deg": 280.0983,
      "mean_motion_rev_day": 13.15549273
    },
    {
      "epoch": "2026-05-06T20:03:06.886368Z",
      "apogee_km": 1203.1932901725731,
      "perigee_km": 1200.3417300958608,
      "latitude_deg": -2.0335711231303186e-05,
      "longitude_deg": 101.97258008442026,
      "height_km": 1204.4407151412133,
      "semi_major_axis_km": 7579.904510134217,
      "eccentricity": 0.0001881,
      "inclination_deg": 87.8964,
      "raan_deg": 267.4417,
      "arg_perigee_deg": 81.1654,
      "mean_anomaly_deg": 278.9689,
      "mean_motion_rev_day": 13.15549398
    },
    {
      "epoch": "2026-05-07T19:46:54.373152Z",
      "apogee_km": 1203.192391166156,
      "perigee_km": 1200.3408314275866,
      "latitude_deg": 1.573027267091117e-05,
      "longitude_deg": 104.85296570965038,
      "height_km": 1204.4251876778383,
      "semi_major_axis_km": 7579.9036112968715,
      "eccentricity": 0.0001881,
      "inclination_deg": 87.8967,
      "raan_deg": 267.2445,
      "arg_perigee_deg": 80.57,
      "mean_anomaly_deg": 279.5643,
      "mean_motion_rev_day": 13.15549632
    },
    {
      "epoch": "2026-05-08T19:30:41.840064Z",
      "apogee_km": 1203.171228906388,
      "perigee_km": 1200.3621166052644,
      "latitude_deg": 3.325667324465576e-06,
      "longitude_deg": 107.73313316819045,
      "height_km": 1204.4404116536996,
      "semi_major_axis_km": 7579.903672755826,
      "eccentricity": 0.0001853,
      "inclination_deg": 87.8968,
      "raan_deg": 267.047,
      "arg_perigee_deg": 81.0508,
      "mean_anomaly_deg": 279.0832,
      "mean_motion_rev_day": 13.15549616
    },
    {
      "epoch": "2026-05-09T19:14:29.292288Z",
      "apogee_km": 1203.1587295352083,
      "perigee_km": 1200.3723573602365,
      "latitude_deg": 3.1639858983322584e-06,
      "longitude_deg": 110.61336323550627,
      "height_km": 1204.4289036769428,
      "semi_major_axis_km": 7579.902543447722,
      "eccentricity": 0.0001838,
      "inclination_deg": 87.8971,
      "raan_deg": 266.8495,
      "arg_perigee_deg": 80.5434,
      "mean_anomaly_deg": 279.5904,
      "mean_motion_rev_day": 13.1554991
    },
    {
      "epoch": "2026-05-10T20:47:48.307776Z",
      "apogee_km": 1203.1321934533516,
      "perigee_km": 1200.4125219758034,
      "latitude_deg": 1.7696526244597738e-05,
      "longitude_deg": 86.0221131573815,
      "height_km": 1204.4346311601116,
      "semi_major_axis_km": 7579.909357714578,
      "eccentricity": 0.0001794,
      "inclination_deg": 87.8969,
      "raan_deg": 266.637,
      "arg_perigee_deg": 80.2597,
      "mean_anomaly_deg": 279.8736,
      "mean_motion_rev_day": 13.15548136
    },
    {
      "epoch": "2026-05-11T18:42:04.572576Z",
      "apogee_km": 1203.1068608774121,
      "perigee_km": 1200.4372169139124,
      "latitude_deg": -2.0670500123052672e-05,
      "longitude_deg": 116.37255494228258,
      "height_km": 1204.442743767135,
      "semi_major_axis_km": 7579.909038895662,
      "eccentricity": 0.0001761,
      "inclination_deg": 87.8972,
      "raan_deg": 266.4548,
      "arg_perigee_deg": 80.4397,
      "mean_anomaly_deg": 279.6932,
      "mean_motion_rev_day": 13.15548219
    }
  ]
}